OPS 6582 (TRANSIT 5B-5) 
1 00965U 64083D   23252.62782140  .00000073  00000+0  89027-4 0  9994
2 00965  90.0400 197.0072 0041269 358.8779 174.2313 13.56836172906424
OSCAR 7 (AO-7)          
1 07530U 74089B   23252.93311608 -.00000020  00000+0  16507-3 0  9992
2 07530 101.9557 240.2036 0011842 262.0770 154.2068 12.53666763234035
UOSAT 2 (UO-11)         
1 14781U 84021B   23253.15718491  .00001880  00000+0  22522-3 0  9999
2 14781  97.6665 226.8496 0006486 286.8661  73.1843 14.85217703127756
NOAA 9                  
1 15427U 84123A   23252.75882573  .00000186  00000+0  11716-3 0  9999
2 15427  99.0977 238.6257 0014458 336.8101  75.1737 14.16407818   447
LUSAT (LO-19)           
1 20442U 90005G   23252.71003954  .00000237  00000+0  10277-3 0  9990
2 20442  98.8527 231.0668 0010682 293.6042  66.4019 14.33310076757511
ITAMSAT (IO-26)         
1 22826U 93061D   23252.55430387  .00000161  00000+0  78913-4 0  9997
2 22826  98.8287 296.6376 0009332 161.1633 198.9896 14.30706689562626
RADIO ROSTO (RS-15)     
1 23439U 94085A   23253.14422089 -.00000051  00000+0 -23877-3 0  9999
2 23439  64.8158 138.2857 0159935 195.2340 164.3736 11.27575492182199
JAS-2 (FO-29)           
1 24278U 96046B   23252.48247913 -.00000025  00000+0  11055-4 0  9993
2 24278  98.5380 219.5863 0349862 198.1019 160.7402 13.53153347336336
NOAA 15                 
1 25338U 98030A   23253.38712764  .00000230  00000+0  11384-3 0  9998
2 25338  98.6019 280.9705 0011384  68.1784 292.0606 14.26385557317404
TECHSAT 1B (GO-32)      
1 25397U 98043D   23253.45736621  .00000140  00000+0  81057-4 0  9998
2 25397  98.8771 211.6821 0000394 198.9353 161.1810 14.23906357307685
ISS (ZARYA)             
1 25544U 98067A   23253.50815553  .00016247  00000+0  30092-3 0  9993
2 25544  51.6405 265.8614 0005571   2.4074 132.5583 15.49134897415020
ORSTED                  
1 25635U 99008B   23252.62306663  .00001271  00000+0  30381-3 0  9991
2 25635  96.4744  17.3351 0136579 185.9272 174.0318 14.49209322295312
PHASE 3D (AO-40)        
1 26609U 00072B   23248.92954575 -.00000416  00000+0  00000+0 0  9997
2 26609   6.1981 167.1770 7915712 195.4401 106.2514  1.25587389104894
PCSAT (NO-44)           
1 26931U 01043C   23252.56321780  .00000200  00000+0  10734-3 0  9994
2 26931  67.0534 338.9517 0007507 260.0987  99.9267 14.30977260145657
SAUDISAT 1C (SO-50)     
1 27607U 02058C   23253.45250388  .00002144  00000+0  31021-3 0  9997
2 27607  64.5577   3.4741 0060015 206.7995 153.0005 14.77582913115038
CUTE-1 (CO-55)          
1 27844U 03031E   23252.56609525  .00000420  00000+0  20655-3 0  9990
2 27844  98.6805 258.5976 0008710 237.7977 122.2357 14.22866595 47734
CUBESAT XI-IV (CO-57)   
1 27848U 03031J   23252.74725064  .00000358  00000+0  18058-3 0  9995
2 27848  98.6839 259.1586 0008499 254.4028 105.6212 14.22365627 47573
MOZHAYETS 4 (RS-22)     
1 27939U 03042A   23253.43509176  .00001600  00000+0  28355-3 0  9991
2 27939  98.2551  41.1049 0011631 223.5443 205.7735 14.68648114 67056
INMARSAT 4-F1           
1 28628U 05009A   23252.88805646 -.00000271  00000+0  00000+0 0  9998
2 28628   3.9864  39.1531 0002755 148.6868 264.0425  1.00271746 67521
NOAA 18                 
1 28654U 05018A   23253.39464922  .00000227  00000+0  14543-3 0  9993
2 28654  98.9042 327.3539 0015097 136.5281 223.7084 14.13001937943606
CUBESAT XI-V            
1 28895U 05043F   23253.33057372  .00002076  00000+0  38718-3 0  9993
2 28895  98.1646  24.8082 0016648 160.3713 199.8135 14.65983174953515
METOP-A                 
1 29499U 06044A   23253.16607850  .00001910  00000+0  25307-3 0  9995
2 29499  98.3931 315.9653 0193745  35.7612  48.4361 14.68934036879502
CARTOSAT-2 (IRS-P7)     
1 29710U 07001B   23252.40407937  .00054448  00000+0  56833-3 0  9997
2 29710  97.9012  38.5491 0082445 253.3003 105.9191 15.60069510905405
CAPE-1                  
1 31130U 07012P   23252.40570285  .00002303  00000+0  47619-3 0  9990
2 31130  98.3115 196.4931 0092379 342.5771  17.2265 14.58677610870507
CARTOSAT-2A             
1 32783U 08021A   23253.42006453  .00001059  00000+0  15123-3 0  9992
2 32783  97.9086 312.4692 0013263 146.2354 213.9705 14.78694200829514
CUTE-1.7+APD II (CO-65) 
1 32785U 08021C   23252.79841005  .00004659  00000+0  45329-3 0  9993
2 32785  97.7142 217.0160 0012013 172.4342 187.7061 14.92968599833516
COMPASS-1               
1 32787U 08021E   23252.72474541  .00010416  00000+0  78102-3 0  9998
2 32787  97.5927 227.3519 0015887  86.2192 274.0849 15.02750645835391
AAUSAT-II               
1 32788U 08021F   23252.93415317  .00014073  00000+0  97518-3 0  9993
2 32788  97.5681 230.6003 0010410  73.1190 287.1177 15.05700546835953
DELFI-C3 (DO-64)        
1 32789U 08021G   23253.00458755  .00133001  00000+0  23155-2 0  9994
2 32789  97.2957 274.6447 0008324 147.7793 212.3969 15.50251334840563
SEEDS II (CO-66)        
1 32791U 08021J   23253.41547247  .00006866  00000+0  58849-3 0  9994
2 32791  97.6651 222.9593 0013757 119.2882 240.9717 14.97771576834496
YUBILEINY (RS-30)       
1 32953U 08025A   23253.43443270  .00000041  00000+0  22656-3 0  9997
2 32953  82.4976 264.0688 0019441   2.6348 357.4831 12.43128747694241
FENGYUN 3A              
1 32958U 08026A   23253.39631149  .00000207  00000+0  11938-3 0  9997
2 32958  98.5621 204.2657 0009021 156.0274 204.1324 14.18912565792144
PRISM (HITOMI)          
1 33493U 09002B   23252.62367757  .00011611  00000+0  74969-3 0  9997
2 33493  98.2441 273.1716 0017210 121.1614 239.1303 15.08316065796475
STARS (KUKAI)           
1 33498U 09002G   23253.33399933  .00003137  00000+0  39691-3 0  9999
2 33498  98.1261 157.5617 0008699 234.2534 125.7870 14.82547908788442
KKS-1 (KISEKI)          
1 33499U 09002H   23252.59179027  .00001502  00000+0  21888-3 0  9990
2 33499  98.1607 145.9549 0007914 325.4081  34.6613 14.77331018786528
NOAA 19                 
1 33591U 09005A   23253.37906204  .00000219  00000+0  14243-3 0  9999
2 33591  99.0924 300.6379 0013842   7.6726 352.4655 14.12817505751973
SWISSCUBE               
1 35932U 09051B   23252.61178601  .00001164  00000+0  26433-3 0  9993
2 35932  98.5081 124.9302 0008643 103.0955 257.1208 14.57935593741514
BEESAT-1                
1 35933U 09051C   23252.57976424  .00001001  00000+0  22940-3 0  9997
2 35933  98.5008 126.1382 0006776 112.7670 247.4244 14.57817263741584
ITUPSAT1                
1 35935U 09051E   23252.60672940  .00000923  00000+0  21677-3 0  9997
2 35935  98.5107 126.0790 0008973 119.0837 241.1260 14.56852182741288
XIWANG-1 (HOPE-1)       
1 36122U 09072B   23252.75239153 -.00000017  00000+0  69455-4 0  9992
2 36122 100.2468 213.9913 0007939  32.9498 327.2109 13.16386949660037
CARTOSAT-2B             
1 36795U 10035A   23253.45699143  .00001018  00000+0  14560-3 0  9993
2 36795  97.9029 312.3434 0012362 222.6294 137.3958 14.78729109710562
TISAT 1                 
1 36799U 10035E   23252.58135529  .00005635  00000+0  49215-3 0  9997
2 36799  98.1228 125.5177 0011993  59.2204 301.0196 14.97174393715055
FENGYUN 3B              
1 37214U 10059A   23253.37486209  .00000113  00000+0  82883-4 0  9993
2 37214  99.0830 272.1795 0022521 163.3166 255.5281 14.14373018664555
JUGNU                   
1 37839U 11058B   23253.43302983  .00000526  00000+0  13738-3 0  9999
2 37839  19.9618 325.7139 0019037  79.1519  14.5983 14.13003565615963
SRMSAT                  
1 37841U 11058D   23252.51602882  .00000485  00000+0  12095-3 0  9990
2 37841  19.9726  60.1467 0011776 238.6250 156.4768 14.10938035614733
M-CUBED & EXP-1 PRIME   
1 37855U 11061F   23252.62170441  .00030352  00000+0  83879-3 0  9996
2 37855 101.7105 262.2867 0109631 140.2726 220.6594 15.31108020649930
HORYU-2                 
1 38340U 12025D   23253.31334574  .00003073  00000+0  42241-3 0  9991
2 38340  98.1693 343.2948 0010097 218.3797 141.6696 14.79061971609084
METOP-B                 
1 38771U 12049A   23253.47780278  .00000144  00000+0  85529-4 0  9991
2 38771  98.6710 311.3950 0001335 103.1257 319.9168 14.21511482569660
SARAL                   
1 39086U 13009A   23253.04999770  .00000160  00000+0  75390-4 0  9993
2 39086  98.5498  77.1155 0002764  54.5828 305.5613 14.32255615550836
AAUSAT 3                
1 39087U 13009B   23253.23477326  .00000841  00000+0  29804-3 0  9997
2 39087  98.3795  86.1300 0012410   9.4032 350.7385 14.36948976552149
STRAND-1                
1 39090U 13009E   23252.75280114  .00000408  00000+0  15608-3 0  9990
2 39090  98.3874  83.7933 0009328  19.7466 340.4080 14.35679379551879
BRITE-AUSTRIA           
1 39091U 13009F   23252.75891159  .00000270  00000+0  10849-3 0  9997
2 39091  98.3906  83.0386 0010918  25.3930 334.7790 14.35540081551890
UNIBRITE                
1 39092U 13009G   23253.44811483  .00000285  00000+0  11418-3 0  9996
2 39092  98.3943  83.5650 0009692  19.8735 340.2826 14.35414024551944
BEESAT-3                
1 39135U 13015F   23252.77292082  .00076890  00000+0  12544-2 0  9999
2 39135  64.8544  51.3672 0017334 251.5271 108.3989 15.51985407575458
BEESAT-2                
1 39136U 13015G   23253.47866472  .00058143  00000+0  11127-2 0  9995
2 39136  64.8647  62.2966 0027734 264.0570  95.7410 15.47295495575326
NEE-01 PEGASO           
1 39151U 13018B   23253.26982320  .00002989  00000+0  37168-3 0  9994
2 39151  98.0147   3.6395 0015020 232.3057 127.6795 14.83247650560307
CUBEBUG-1 (CAPITAN BETO)
1 39153U 13018D   23253.27042520  .00003895  00000+0  46908-3 0  9995
2 39153  98.0463  10.1572 0014874 225.6398 134.3598 14.84400920560497
ESTCUBE 1               
1 39161U 13021C   23253.45370459  .00001992  00000+0  30557-3 0  9992
2 39161  97.8656 323.2909 0010297  60.9171 299.3068 14.74662862555732
FENGYUN 3C              
1 39260U 13052A   23253.45709230  .00000136  00000+0  89582-4 0  9991
2 39260  98.4296 263.0387 0012157  60.4003 299.8382 14.16072904515600
